[
  {
    "iso_code": "aa-DJ",
    "native_name": "Qafar (Yabuuti)",
    "english_name": "Afar (Djibouti)",
    "is_rtl": false
  },
  {
    "iso_code": "aa-ER",
    "native_name": "Qafar (Eretria)",
    "english_name": "Afar (Eritrea)",
    "is_rtl": false
  },
  {
    "iso_code": "aa-ET",
    "native_name": "Qafar (Otobbia)",
    "english_name": "Afar (Ethiopia)",
    "is_rtl": false
  },
  {
    "iso_code": "af-NA",
    "native_name": "Afrikaans (Namibië)",
    "english_name": "Afrikaans (Namibia)",
    "is_rtl": false
  },
  {
    "iso_code": "af-ZA",
    "native_name": "Afrikaans (Suid-Afrika)",
    "english_name": "Afrikaans (South Africa)",
    "is_rtl": false
  },
  {
    "iso_code": "agq-CM",
    "native_name": "Aghem (Kàmàlûŋ)",
    "english_name": "Aghem (Cameroon)",
    "is_rtl": false
  },
  {
    "iso_code": "ak-GH",
    "native_name": "Akan (Gaana)",
    "english_name": "Akan (Ghana)",
    "is_rtl": false
  },
  {
    "iso_code": "am-ET",
    "native_name": "አማርኛ (ኢትዮጵያ)",
    "english_name": "Amharic (Ethiopia)",
    "is_rtl": false
  },
  {
    "iso_code": "ar-001",
    "native_name": "العربية (العالم)",
    "english_name": "Arabic (World)",
    "is_rtl": true
  },
  {
    "iso_code": "ar-AE",
    "native_name": "العربية (الإمارات العربية المتحدة)",
    "english_name": "Arabic (United Arab Emirates)",
    "is_rtl": true
  },
  {
    "iso_code": "ar-BH",
    "native_name": "العربية (البحرين)",
    "english_name": "Arabic (Bahrain)",
    "is_rtl": true
  },
  {
    "iso_code": "ar-DJ",
    "native_name": "العربية (جيبوتي)",
    "english_name": "Arabic (Djibouti)",
    "is_rtl": true
  },
  {
    "iso_code": "ar-DZ",
    "native_name": "العربية (الجزائر)",
    "english_name": "Arabic (Algeria)",
    "is_rtl": true
  },
  {
    "iso_code": "ar-EG",
    "native_name": "العربية (مصر)",
    "english_name": "Arabic (Egypt)",
    "is_rtl": true
  },
  {
    "iso_code": "ar-ER",
    "native_name": "العربية (أريتريا)",
    "english_name": "Arabic (Eritrea)",
    "is_rtl": true
  },
  {
    "iso_code": "ar-IL",
    "native_name": "العربية (إسرائيل)",
    "english_name": "Arabic (Israel)",
    "is_rtl": true
  },
  {
    "iso_code": "ar-IQ",
    "native_name": "العربية (العراق)",
    "english_name": "Arabic (Iraq)",
    "is_rtl": true
  },
  {
    "iso_code": "ar-JO",
    "native_name": "العربية (الأردن)",
    "english_name": "Arabic (Jordan)",
    "is_rtl": true
  },
  {
    "iso_code": "ar-KM",
    "native_name": "العربية (جزر القمر)",
    "english_name": "Arabic (Comoros)",
    "is_rtl": true
  },
  {
    "iso_code": "ar-KW",
    "native_name": "العربية (الكويت)",
    "english_name": "Arabic (Kuwait)",
    "is_rtl": true
  },
  {
    "iso_code": "ar-LB",
    "native_name": "العربية (لبنان)",
    "english_name": "Arabic (Lebanon)",
    "is_rtl": true
  },
  {
    "iso_code": "ar-LY",
    "native_name": "العربية (ليبيا)",
    "english_name": "Arabic (Libya)",
    "is_rtl": true
  },
  {
    "iso_code": "ar-MA",
    "native_name": "العربية (المملكة المغربية)",
    "english_name": "Arabic (Morocco)",
    "is_rtl": true
  },
  {
    "iso_code": "ar-MR",
    "native_name": "العربية (موريتانيا)",
    "english_name": "Arabic (Mauritania)",
    "is_rtl": true
  },
  {
    "iso_code": "ar-OM",
    "native_name": "العربية (عمان)",
    "english_name": "Arabic (Oman)",
    "is_rtl": true
  },
  {
    "iso_code": "ar-PS",
    "native_name": "العربية (السلطة الفلسطينية)",
    "english_name": "Arabic (Palestinian Authority)",
    "is_rtl": true
  },
  {
    "iso_code": "ar-QA",
    "native_name": "العربية (قطر)",
    "english_name": "Arabic (Qatar)",
    "is_rtl": true
  },
  {
    "iso_code": "ar-SA",
    "native_name": "العربية (المملكة العربية السعودية)",
    "english_name": "Arabic (Saudi Arabia)",
    "is_rtl": true
  },
  {
    "iso_code": "ar-SD",
    "native_name": "العربية (السودان)",
    "english_name": "Arabic (Sudan)",
    "is_rtl": true
  },
  {
    "iso_code": "ar-SO",
    "native_name": "العربية (الصومال)",
    "english_name": "Arabic (Somalia)",
    "is_rtl": true
  },
  {
    "iso_code": "ar-SS",
    "native_name": "العربية (جنوب السودان)",
    "english_name": "Arabic (South Sudan)",
    "is_rtl": true
  },
  {
    "iso_code": "ar-SY",
    "native_name": "العربية (سوريا)",
    "english_name": "Arabic (Syria)",
    "is_rtl": true
  },
  {
    "iso_code": "ar-TD",
    "native_name": "العربية (تشاد)",
    "english_name": "Arabic (Chad)",
    "is_rtl": true
  },
  {
    "iso_code": "ar-TN",
    "native_name": "العربية (تونس)",
    "english_name": "Arabic (Tunisia)",
    "is_rtl": true
  },
  {
    "iso_code": "ar-YE",
    "native_name": "العربية (اليمن)",
    "english_name": "Arabic (Yemen)",
    "is_rtl": true
  },
  {
    "iso_code": "arn-CL",
    "native_name": "Mapudungun (Chile)",
    "english_name": "Mapudungun (Chile)",
    "is_rtl": false
  },
  {
    "iso_code": "as-IN",
    "native_name": "অসমীয়া (ভাৰত)",
    "english_name": "Assamese (India)",
    "is_rtl": false
  },
  {
    "iso_code": "asa-TZ",
    "native_name": "Kipare (Tadhania)",
    "english_name": "Asu (Tanzania)",
    "is_rtl": false
  },
  {
    "iso_code": "ast-ES",
    "native_name": "asturianu (España)",
    "english_name": "Asturian (Spain)",
    "is_rtl": false
  },
  {
    "iso_code": "az-Cyrl-AZ",
    "native_name": "Азәрбајҹан дили (Азәрбајҹан)",
    "english_name": "Azerbaijani (Cyrillic, Azerbaijan)",
    "is_rtl": false
  },
  {
    "iso_code": "az-Latn-AZ",
    "native_name": "Azərbaycan dili (Azərbaycan)",
    "english_name": "Azerbaijani (Latin, Azerbaijan)",
    "is_rtl": false
  },
  {
    "iso_code": "ba-RU",
    "native_name": "Башҡорт (Рәсәй)",
    "english_name": "Bashkir (Russia)",
    "is_rtl": false
  },
  {
    "iso_code": "bas-CM",
    "native_name": "Ɓàsàa (Kàmɛ̀rûn)",
    "english_name": "Basaa (Cameroon)",
    "is_rtl": false
  },
  {
    "iso_code": "be-BY",
    "native_name": "Беларуская (Беларусь)",
    "english_name": "Belarusian (Belarus)",
    "is_rtl": false
  },
  {
    "iso_code": "bem-ZM",
    "native_name": "Ichibemba (Zambia)",
    "english_name": "Bemba (Zambia)",
    "is_rtl": false
  },
  {
    "iso_code": "bez-TZ",
    "native_name": "Hibena (Hutanzania)",
    "english_name": "Bena (Tanzania)",
    "is_rtl": false
  },
  {
    "iso_code": "bg-BG",
    "native_name": "български (България)",
    "english_name": "Bulgarian (Bulgaria)",
    "is_rtl": false
  },
  {
    "iso_code": "bin-NG",
    "native_name": "Ẹ̀dó (Nigeria)",
    "english_name": "Edo (Nigeria)",
    "is_rtl": false
  },
  {
    "iso_code": "bm-Latn-ML",
    "native_name": "Bamana (Mali)",
    "english_name": "Bamanankan (Latin, Mali)",
    "is_rtl": false
  },
  {
    "iso_code": "bn-BD",
    "native_name": "বাংলা (বাংলাদেশ)",
    "english_name": "Bangla (Bangladesh)",
    "is_rtl": false
  },
  {
    "iso_code": "bn-IN",
    "native_name": "বাংলা (ভারত)",
    "english_name": "Bangla (India)",
    "is_rtl": false
  },
  {
    "iso_code": "bo-CN",
    "native_name": "བོད་ཡིག (ཀྲུང་ཧྭ་མི་དམངས་སྤྱི་མཐུན་རྒྱལ་ཁབ།)",
    "english_name": "Tibetan (China)",
    "is_rtl": false
  },
  {
    "iso_code": "bo-IN",
    "native_name": "བོད་སྐད་ (རྒྱ་གར་)",
    "english_name": "Tibetan (India)",
    "is_rtl": false
  },
  {
    "iso_code": "br-FR",
    "native_name": "brezhoneg (Frañs)",
    "english_name": "Breton (France)",
    "is_rtl": false
  },
  {
    "iso_code": "brx-IN",
    "native_name": "बड़ो (भारत)",
    "english_name": "Bodo (India)",
    "is_rtl": false
  },
  {
    "iso_code": "bs-Cyrl-BA",
    "native_name": "босански (Босна и Херцеговина)",
    "english_name": "Bosnian (Cyrillic, Bosnia and Herzegovina)",
    "is_rtl": false
  },
  {
    "iso_code": "bs-Latn-BA",
    "native_name": "bosanski (Bosna i Hercegovina)",
    "english_name": "Bosnian (Latin, Bosnia and Herzegovina)",
    "is_rtl": false
  },
  {
    "iso_code": "byn-ER",
    "native_name": "ብሊን (ኤርትራ)",
    "english_name": "Blin (Eritrea)",
    "is_rtl": false
  },
  {
    "iso_code": "ca-AD",
    "native_name": "català (Andorra)",
    "english_name": "Catalan (Andorra)",
    "is_rtl": false
  },
  {
    "iso_code": "ca-ES",
    "native_name": "català (català)",
    "english_name": "Catalan (Catalan)",
    "is_rtl": false
  },
  {
    "iso_code": "ca-ES-valencia",
    "native_name": "valencià (Espanya)",
    "english_name": "Valencian (Spain)",
    "is_rtl": false
  },
  {
    "iso_code": "ca-FR",
    "native_name": "català (França)",
    "english_name": "Catalan (France)",
    "is_rtl": false
  },
  {
    "iso_code": "ca-IT",
    "native_name": "català (Itàlia)",
    "english_name": "Catalan (Italy)",
    "is_rtl": false
  },
  {
    "iso_code": "cgg-UG",
    "native_name": "Rukiga (Uganda)",
    "english_name": "Chiga (Uganda)",
    "is_rtl": false
  },
  {
    "iso_code": "chr-Cher-US",
    "native_name": "ᏣᎳᎩ (ᏣᎳᎩ)",
    "english_name": "Cherokee (Cherokee)",
    "is_rtl": false
  },
  {
    "iso_code": "co-FR",
    "native_name": "Corsu (Francia)",
    "english_name": "Corsican (France)",
    "is_rtl": false
  },
  {
    "iso_code": "cs-CZ",
    "native_name": "čeština (Česká republika)",
    "english_name": "Czech (Czech Republic)",
    "is_rtl": false
  },
  {
    "iso_code": "cy-GB",
    "native_name": "Cymraeg (Y Deyrnas Unedig)",
    "english_name": "Welsh (United Kingdom)",
    "is_rtl": false
  },
  {
    "iso_code": "da-DK",
    "native_name": "dansk (Danmark)",
    "english_name": "Danish (Denmark)",
    "is_rtl": false
  },
  {
    "iso_code": "da-GL",
    "native_name": "dansk (Grønland)",
    "english_name": "Danish (Greenland)",
    "is_rtl": false
  },
  {
    "iso_code": "dav-KE",
    "native_name": "Kitaita (Kenya)",
    "english_name": "Taita (Kenya)",
    "is_rtl": false
  },
  {
    "iso_code": "de-AT",
    "native_name": "Deutsch (Österreich)",
    "english_name": "German (Austria)",
    "is_rtl": false
  },
  {
    "iso_code": "de-BE",
    "native_name": "Deutsch (Belgien)",
    "english_name": "German (Belgium)",
    "is_rtl": false
  },
  {
    "iso_code": "de-CH",
    "native_name": "Deutsch (Schweiz)",
    "english_name": "German (Switzerland)",
    "is_rtl": false
  },
  {
    "iso_code": "de-DE",
    "native_name": "Deutsch (Deutschland)",
    "english_name": "German (Germany)",
    "is_rtl": false
  },
  {
    "iso_code": "de-LI",
    "native_name": "Deutsch (Liechtenstein)",
    "english_name": "German (Liechtenstein)",
    "is_rtl": false
  },
  {
    "iso_code": "de-LU",
    "native_name": "Deutsch (Luxemburg)",
    "english_name": "German (Luxembourg)",
    "is_rtl": false
  },
  {
    "iso_code": "dje-NE",
    "native_name": "Zarmaciine (Nižer)",
    "english_name": "Zarma (Niger)",
    "is_rtl": false
  },
  {
    "iso_code": "dsb-DE",
    "native_name": "dolnoserbšćina (Nimska)",
    "english_name": "Lower Sorbian (Germany)",
    "is_rtl": false
  },
  {
    "iso_code": "dua-CM",
    "native_name": "duálá (Cameroun)",
    "english_name": "Duala (Cameroon)",
    "is_rtl": false
  },
  {
    "iso_code": "dv-MV",
    "native_name": "ދިވެހިބަސް (ދިވެހި ރާއްޖެ)",
    "english_name": "Divehi (Maldives)",
    "is_rtl": true
  },
  {
    "iso_code": "dyo-SN",
    "native_name": "joola (Senegal)",
    "english_name": "Jola-Fonyi (Senegal)",
    "is_rtl": false
  },
  {
    "iso_code": "dz-BT",
    "native_name": "རྫོང་ཁ (འབྲུག)",
    "english_name": "Dzongkha (Bhutan)",
    "is_rtl": false
  },
  {
    "iso_code": "ebu-KE",
    "native_name": "Kĩembu (Kenya)",
    "english_name": "Embu (Kenya)",
    "is_rtl": false
  },
  {
    "iso_code": "ee-GH",
    "native_name": "eʋegbe (Ghana nutome)",
    "english_name": "Ewe (Ghana)",
    "is_rtl": false
  },
  {
    "iso_code": "ee-TG",
    "native_name": "eʋegbe (Togo nutome)",
    "english_name": "Ewe (Togo)",
    "is_rtl": false
  },
  {
    "iso_code": "el-CY",
    "native_name": "Ελληνικά (Κύπρος)",
    "english_name": "Greek (Cyprus)",
    "is_rtl": false
  },
  {
    "iso_code": "el-GR",
    "native_name": "Ελληνικά (Ελλάδα)",
    "english_name": "Greek (Greece)",
    "is_rtl": false
  },
  {
    "iso_code": "en-001",
    "native_name": "English (World)",
    "english_name": "English (World)",
    "is_rtl": false
  },
  {
    "iso_code": "en-029",
    "native_name": "English (Caribbean)",
    "english_name": "English (Caribbean)",
    "is_rtl": false
  },
  {
    "iso_code": "en-150",
    "native_name": "English (Europe)",
    "english_name": "English (Europe)",
    "is_rtl": false
  },
  {
    "iso_code": "en-AG",
    "native_name": "English (Antigua and Barbuda)",
    "english_name": "English (Antigua and Barbuda)",
    "is_rtl": false
  },
  {
    "iso_code": "en-AI",
    "native_name": "English (Anguilla)",
    "english_name": "English (Anguilla)",
    "is_rtl": false
  },
  {
    "iso_code": "en-AS",
    "native_name": "English (American Samoa)",
    "english_name": "English (American Samoa)",
    "is_rtl": false
  },
  {
    "iso_code": "en-AU",
    "native_name": "English (Australia)",
    "english_name": "English (Australia)",
    "is_rtl": false
  },
  {
    "iso_code": "en-BB",
    "native_name": "English (Barbados)",
    "english_name": "English (Barbados)",
    "is_rtl": false
  },
  {
    "iso_code": "en-BE",
    "native_name": "English (Belgium)",
    "english_name": "English (Belgium)",
    "is_rtl": false
  },
  {
    "iso_code": "en-BM",
    "native_name": "English (Bermuda)",
    "english_name": "English (Bermuda)",
    "is_rtl": false
  },
  {
    "iso_code": "en-BS",
    "native_name": "English (Bahamas)",
    "english_name": "English (Bahamas)",
    "is_rtl": false
  },
  {
    "iso_code": "en-BW",
    "native_name": "English (Botswana)",
    "english_name": "English (Botswana)",
    "is_rtl": false
  },
  {
    "iso_code": "en-BZ",
    "native_name": "English (Belize)",
    "english_name": "English (Belize)",
    "is_rtl": false
  },
  {
    "iso_code": "en-CA",
    "native_name": "English (Canada)",
    "english_name": "English (Canada)",
    "is_rtl": false
  },
  {
    "iso_code": "en-CC",
    "native_name": "English (Cocos (Keeling) Islands)",
    "english_name": "English (Cocos (Keeling) Islands)",
    "is_rtl": false
  },
  {
    "iso_code": "en-CK",
    "native_name": "English (Cook Islands)",
    "english_name": "English (Cook Islands)",
    "is_rtl": false
  },
  {
    "iso_code": "en-CM",
    "native_name": "English (Cameroon)",
    "english_name": "English (Cameroon)",
    "is_rtl": false
  },
  {
    "iso_code": "en-CX",
    "native_name": "English (Christmas Island)",
    "english_name": "English (Christmas Island)",
    "is_rtl": false
  },
  {
    "iso_code": "en-DM",
    "native_name": "English (Dominica)",
    "english_name": "English (Dominica)",
    "is_rtl": false
  },
  {
    "iso_code": "en-ER",
    "native_name": "English (Eritrea)",
    "english_name": "English (Eritrea)",
    "is_rtl": false
  },
  {
    "iso_code": "en-FJ",
    "native_name": "English (Fiji)",
    "english_name": "English (Fiji)",
    "is_rtl": false
  },
  {
    "iso_code": "en-FK",
    "native_name": "English (Falkland Islands)",
    "english_name": "English (Falkland Islands)",
    "is_rtl": false
  },
  {
    "iso_code": "en-FM",
    "native_name": "English (Micronesia)",
    "english_name": "English (Micronesia)",
    "is_rtl": false
  },
  {
    "iso_code": "en-GB",
    "native_name": "English (United Kingdom)",
    "english_name": "English (United Kingdom)",
    "is_rtl": false
  },
  {
    "iso_code": "en-GD",
    "native_name": "English (Grenada)",
    "english_name": "English (Grenada)",
    "is_rtl": false
  },
  {
    "iso_code": "en-GG",
    "native_name": "English (Guernsey)",
    "english_name": "English (Guernsey)",
    "is_rtl": false
  },
  {
    "iso_code": "en-GH",
    "native_name": "English (Ghana)",
    "english_name": "English (Ghana)",
    "is_rtl": false
  },
  {
    "iso_code": "en-GI",
    "native_name": "English (Gibraltar)",
    "english_name": "English (Gibraltar)",
    "is_rtl": false
  },
  {
    "iso_code": "en-GM",
    "native_name": "English (Gambia)",
    "english_name": "English (Gambia)",
    "is_rtl": false
  },
  {
    "iso_code": "en-GU",
    "native_name": "English (Guam)",
    "english_name": "English (Guam)",
    "is_rtl": false
  },
  {
    "iso_code": "en-GY",
    "native_name": "English (Guyana)",
    "english_name": "English (Guyana)",
    "is_rtl": false
  },
  {
    "iso_code": "en-HK",
    "native_name": "English (Hong Kong SAR)",
    "english_name": "English (Hong Kong SAR)",
    "is_rtl": false
  },
  {
    "iso_code": "en-ID",
    "native_name": "English (Indonesia)",
    "english_name": "English (Indonesia)",
    "is_rtl": false
  },
  {
    "iso_code": "en-IE",
    "native_name": "English (Ireland)",
    "english_name": "English (Ireland)",
    "is_rtl": false
  },
  {
    "iso_code": "en-IM",
    "native_name": "English (Isle of Man)",
    "english_name": "English (Isle of Man)",
    "is_rtl": false
  },
  {
    "iso_code": "en-IN",
    "native_name": "English (India)",
    "english_name": "English (India)",
    "is_rtl": false
  },
  {
    "iso_code": "en-IO",
    "native_name": "English (British Indian Ocean Territory)",
    "english_name": "English (British Indian Ocean Territory)",
    "is_rtl": false
  },
  {
    "iso_code": "en-JE",
    "native_name": "English (Jersey)",
    "english_name": "English (Jersey)",
    "is_rtl": false
  },
  {
    "iso_code": "en-JM",
    "native_name": "English (Jamaica)",
    "english_name": "English (Jamaica)",
    "is_rtl": false
  },
  {
    "iso_code": "en-KE",
    "native_name": "English (Kenya)",
    "english_name": "English (Kenya)",
    "is_rtl": false
  },
  {
    "iso_code": "en-KI",
    "native_name": "English (Kiribati)",
    "english_name": "English (Kiribati)",
    "is_rtl": false
  },
  {
    "iso_code": "en-KN",
    "native_name": "English (Saint Kitts and Nevis)",
    "english_name": "English (Saint Kitts and Nevis)",
    "is_rtl": false
  },
  {
    "iso_code": "en-KY",
    "native_name": "English (Cayman Islands)",
    "english_name": "English (Cayman Islands)",
    "is_rtl": false
  },
  {
    "iso_code": "en-LC",
    "native_name": "English (Saint Lucia)",
    "english_name": "English (Saint Lucia)",
    "is_rtl": false
  },
  {
    "iso_code": "en-LR",
    "native_name": "English (Liberia)",
    "english_name": "English (Liberia)",
    "is_rtl": false
  },
  {
    "iso_code": "en-LS",
    "native_name": "English (Lesotho)",
    "english_name": "English (Lesotho)",
    "is_rtl": false
  },
  {
    "iso_code": "en-MG",
    "native_name": "English (Madagascar)",
    "english_name": "English (Madagascar)",
    "is_rtl": false
  },
  {
    "iso_code": "en-MH",
    "native_name": "English (Marshall Islands)",
    "english_name": "English (Marshall Islands)",
    "is_rtl": false
  },
  {
    "iso_code": "en-MO",
    "native_name": "English (Macao SAR)",
    "english_name": "English (Macao SAR)",
    "is_rtl": false
  },
  {
    "iso_code": "en-MP",
    "native_name": "English (Northern Mariana Islands)",
    "english_name": "English (Northern Mariana Islands)",
    "is_rtl": false
  },
  {
    "iso_code": "en-MS",
    "native_name": "English (Montserrat)",
    "english_name": "English (Montserrat)",
    "is_rtl": false
  },
  {
    "iso_code": "en-MT",
    "native_name": "English (Malta)",
    "english_name": "English (Malta)",
    "is_rtl": false
  },
  {
    "iso_code": "en-MU",
    "native_name": "English (Mauritius)",
    "english_name": "English (Mauritius)",
    "is_rtl": false
  },
  {
    "iso_code": "en-MW",
    "native_name": "English (Malawi)",
    "english_name": "English (Malawi)",
    "is_rtl": false
  },
  {
    "iso_code": "en-MY",
    "native_name": "English (Malaysia)",
    "english_name": "English (Malaysia)",
    "is_rtl": false
  },
  {
    "iso_code": "en-NA",
    "native_name": "English (Namibia)",
    "english_name": "English (Namibia)",
    "is_rtl": false
  },
  {
    "iso_code": "en-NF",
    "native_name": "English (Norfolk Island)",
    "english_name": "English (Norfolk Island)",
    "is_rtl": false
  },
  {
    "iso_code": "en-NG",
    "native_name": "English (Nigeria)",
    "english_name": "English (Nigeria)",
    "is_rtl": false
  },
  {
    "iso_code": "en-NR",
    "native_name": "English (Nauru)",
    "english_name": "English (Nauru)",
    "is_rtl": false
  },
  {
    "iso_code": "en-NU",
    "native_name": "English (Niue)",
    "english_name": "English (Niue)",
    "is_rtl": false
  },
  {
    "iso_code": "en-NZ",
    "native_name": "English (New Zealand)",
    "english_name": "English (New Zealand)",
    "is_rtl": false
  },
  {
    "iso_code": "en-PG",
    "native_name": "English (Papua New Guinea)",
    "english_name": "English (Papua New Guinea)",
    "is_rtl": false
  },
  {
    "iso_code": "en-PH",
    "native_name": "English (Philippines)",
    "english_name": "English (Philippines)",
    "is_rtl": false
  },
  {
    "iso_code": "en-PK",
    "native_name": "English (Pakistan)",
    "english_name": "English (Pakistan)",
    "is_rtl": false
  },
  {
    "iso_code": "en-PN",
    "native_name": "English (Pitcairn Islands)",
    "english_name": "English (Pitcairn Islands)",
    "is_rtl": false
  },
  {
    "iso_code": "en-PR",
    "native_name": "English (Puerto Rico)",
    "english_name": "English (Puerto Rico)",
    "is_rtl": false
  },
  {
    "iso_code": "en-PW",
    "native_name": "English (Palau)",
    "english_name": "English (Palau)",
    "is_rtl": false
  },
  {
    "iso_code": "en-RW",
    "native_name": "English (Rwanda)",
    "english_name": "English (Rwanda)",
    "is_rtl": false
  },
  {
    "iso_code": "en-SB",
    "native_name": "English (Solomon Islands)",
    "english_name": "English (Solomon Islands)",
    "is_rtl": false
  },
  {
    "iso_code": "en-SC",
    "native_name": "English (Seychelles)",
    "english_name": "English (Seychelles)",
    "is_rtl": false
  },
  {
    "iso_code": "en-SD",
    "native_name": "English (Sudan)",
    "english_name": "English (Sudan)",
    "is_rtl": false
  },
  {
    "iso_code": "en-SG",
    "native_name": "English (Singapore)",
    "english_name": "English (Singapore)",
    "is_rtl": false
  },
  {
    "iso_code": "en-SH",
    "native_name": "English (St Helena, Ascension, Tristan da Cunha)",
    "english_name": "English (St Helena, Ascension, Tristan da Cunha)",
    "is_rtl": false
  },
  {
    "iso_code": "en-SL",
    "native_name": "English (Sierra Leone)",
    "english_name": "English (Sierra Leone)",
    "is_rtl": false
  },
  {
    "iso_code": "en-SS",
    "native_name": "English (South Sudan)",
    "english_name": "English (South Sudan)",
    "is_rtl": false
  },
  {
    "iso_code": "en-SX",
    "native_name": "English (Sint Maarten)",
    "english_name": "English (Sint Maarten)",
    "is_rtl": false
  },
  {
    "iso_code": "en-SZ",
    "native_name": "English (Swaziland)",
    "english_name": "English (Swaziland)",
    "is_rtl": false
  },
  {
    "iso_code": "en-TC",
    "native_name": "English (Turks and Caicos Islands)",
    "english_name": "English (Turks and Caicos Islands)",
    "is_rtl": false
  },
  {
    "iso_code": "en-TK",
    "native_name": "English (Tokelau)",
    "english_name": "English (Tokelau)",
    "is_rtl": false
  },
  {
    "iso_code": "en-TO",
    "native_name": "English (Tonga)",
    "english_name": "English (Tonga)",
    "is_rtl": false
  },
  {
    "iso_code": "en-TT",
    "native_name": "English (Trinidad and Tobago)",
    "english_name": "English (Trinidad and Tobago)",
    "is_rtl": false
  },
  {
    "iso_code": "en-TV",
    "native_name": "English (Tuvalu)",
    "english_name": "English (Tuvalu)",
    "is_rtl": false
  },
  {
    "iso_code": "en-TZ",
    "native_name": "English (Tanzania)",
    "english_name": "English (Tanzania)",
    "is_rtl": false
  },
  {
    "iso_code": "en-UG",
    "native_name": "English (Uganda)",
    "english_name": "English (Uganda)",
    "is_rtl": false
  },
  {
    "iso_code": "en-UM",
    "native_name": "English (U.S. Outlying Islands)",
    "english_name": "English (U.S. Outlying Islands)",
    "is_rtl": false
  },
  {
    "iso_code": "en-US",
    "native_name": "English (United States)",
    "english_name": "English (United States)",
    "is_rtl": false
  },
  {
    "iso_code": "en-VC",
    "native_name": "English (Saint Vincent and the Grenadines)",
    "english_name": "English (Saint Vincent and the Grenadines)",
    "is_rtl": false
  },
  {
    "iso_code": "en-VG",
    "native_name": "English (British Virgin Islands)",
    "english_name": "English (British Virgin Islands)",
    "is_rtl": false
  },
  {
    "iso_code": "en-VI",
    "native_name": "English (U.S. Virgin Islands)",
    "english_name": "English (U.S. Virgin Islands)",
    "is_rtl": false
  },
  {
    "iso_code": "en-VU",
    "native_name": "English (Vanuatu)",
    "english_name": "English (Vanuatu)",
    "is_rtl": false
  },
  {
    "iso_code": "en-WS",
    "native_name": "English (Samoa)",
    "english_name": "English (Samoa)",
    "is_rtl": false
  },
  {
    "iso_code": "en-ZA",
    "native_name": "English (South Africa)",
    "english_name": "English (South Africa)",
    "is_rtl": false
  },
  {
    "iso_code": "en-ZM",
    "native_name": "English (Zambia)",
    "english_name": "English (Zambia)",
    "is_rtl": false
  },
  {
    "iso_code": "en-ZW",
    "native_name": "English (Zimbabwe)",
    "english_name": "English (Zimbabwe)",
    "is_rtl": false
  },
  {
    "iso_code": "eo-001",
    "native_name": "esperanto (World)",
    "english_name": "Esperanto (World)",
    "is_rtl": false
  },
  {
    "iso_code": "es-419",
    "native_name": "español (Latinoamérica)",
    "english_name": "Spanish (Latin America)",
    "is_rtl": false
  },
  {
    "iso_code": "es-AR",
    "native_name": "español (Argentina)",
    "english_name": "Spanish (Argentina)",
    "is_rtl": false
  },
  {
    "iso_code": "es-BO",
    "native_name": "español (Bolivia)",
    "english_name": "Spanish (Bolivia)",
    "is_rtl": false
  },
  {
    "iso_code": "es-CL",
    "native_name": "español (Chile)",
    "english_name": "Spanish (Chile)",
    "is_rtl": false
  },
  {
    "iso_code": "es-CO",
    "native_name": "español (Colombia)",
    "english_name": "Spanish (Colombia)",
    "is_rtl": false
  },
  {
    "iso_code": "es-CR",
    "native_name": "español (Costa Rica)",
    "english_name": "Spanish (Costa Rica)",
    "is_rtl": false
  },
  {
    "iso_code": "es-CU",
    "native_name": "español (Cuba)",
    "english_name": "Spanish (Cuba)",
    "is_rtl": false
  },
  {
    "iso_code": "es-DO",
    "native_name": "español (República Dominicana)",
    "english_name": "Spanish (Dominican Republic)",
    "is_rtl": false
  },
  {
    "iso_code": "es-EC",
    "native_name": "español (Ecuador)",
    "english_name": "Spanish (Ecuador)",
    "is_rtl": false
  },
  {
    "iso_code": "es-ES",
    "native_name": "español (España, alfabetización internacional)",
    "english_name": "Spanish (Spain, International Sort)",
    "is_rtl": false
  },
  {
    "iso_code": "es-GQ",
    "native_name": "español (Guinea Ecuatorial)",
    "english_name": "Spanish (Equatorial Guinea)",
    "is_rtl": false
  },
  {
    "iso_code": "es-GT",
    "native_name": "español (Guatemala)",
    "english_name": "Spanish (Guatemala)",
    "is_rtl": false
  },
  {
    "iso_code": "es-HN",
    "native_name": "español (Honduras)",
    "english_name": "Spanish (Honduras)",
    "is_rtl": false
  },
  {
    "iso_code": "es-MX",
    "native_name": "español (México)",
    "english_name": "Spanish (Mexico)",
    "is_rtl": false
  },
  {
    "iso_code": "es-NI",
    "native_name": "español (Nicaragua)",
    "english_name": "Spanish (Nicaragua)",
    "is_rtl": false
  },
  {
    "iso_code": "es-PA",
    "native_name": "español (Panamá)",
    "english_name": "Spanish (Panama)",
    "is_rtl": false
  },
  {
    "iso_code": "es-PE",
    "native_name": "español (Perú)",
    "english_name": "Spanish (Peru)",
    "is_rtl": false
  },
  {
    "iso_code": "es-PH",
    "native_name": "español (Filipinas)",
    "english_name": "Spanish (Philippines)",
    "is_rtl": false
  },
  {
    "iso_code": "es-PR",
    "native_name": "español (Puerto Rico)",
    "english_name": "Spanish (Puerto Rico)",
    "is_rtl": false
  },
  {
    "iso_code": "es-PY",
    "native_name": "español (Paraguay)",
    "english_name": "Spanish (Paraguay)",
    "is_rtl": false
  },
  {
    "iso_code": "es-SV",
    "native_name": "español (El Salvador)",
    "english_name": "Spanish (El Salvador)",
    "is_rtl": false
  },
  {
    "iso_code": "es-US",
    "native_name": "español (Estados Unidos)",
    "english_name": "Spanish (United States)",
    "is_rtl": false
  },
  {
    "iso_code": "es-UY",
    "native_name": "español (Uruguay)",
    "english_name": "Spanish (Uruguay)",
    "is_rtl": false
  },
  {
    "iso_code": "es-VE",
    "native_name": "español (Venezuela)",
    "english_name": "Spanish (Venezuela)",
    "is_rtl": false
  },
  {
    "iso_code": "et-EE",
    "native_name": "eesti (Eesti)",
    "english_name": "Estonian (Estonia)",
    "is_rtl": false
  },
  {
    "iso_code": "eu-ES",
    "native_name": "euskara (euskara)",
    "english_name": "Basque (Basque)",
    "is_rtl": false
  },
  {
    "iso_code": "ewo-CM",
    "native_name": "ewondo (Kamərún)",
    "english_name": "Ewondo (Cameroon)",
    "is_rtl": false
  },
  {
    "iso_code": "fa-IR",
    "native_name": "فارسى (ایران)",
    "english_name": "Persian (Iran)",
    "is_rtl": true
  },
  {
    "iso_code": "ff-CM",
    "native_name": "Pulaar (Kameruun)",
    "english_name": "Fulah (Cameroon)",
    "is_rtl": false
  },
  {
    "iso_code": "ff-GN",
    "native_name": "Pulaar (Gine)",
    "english_name": "Fulah (Guinea)",
    "is_rtl": false
  },
  {
    "iso_code": "ff-Latn-SN",
    "native_name": "Fulah (Sénégal)",
    "english_name": "Fulah (Latin, Senegal)",
    "is_rtl": false
  },
  {
    "iso_code": "ff-MR",
    "native_name": "Pulaar (Muritani)",
    "english_name": "Fulah (Mauritania)",
    "is_rtl": false
  },
  {
    "iso_code": "ff-NG",
    "native_name": "Pulaar (Nigeria)",
    "english_name": "Fulah (Nigeria)",
    "is_rtl": false
  },
  {
    "iso_code": "fi-FI",
    "native_name": "suomi (Suomi)",
    "english_name": "Finnish (Finland)",
    "is_rtl": false
  },
  {
    "iso_code": "fil-PH",
    "native_name": "Filipino (Pilipinas)",
    "english_name": "Filipino (Philippines)",
    "is_rtl": false
  },
  {
    "iso_code": "fo-FO",
    "native_name": "føroyskt (Føroyar)",
    "english_name": "Faroese (Faroe Islands)",
    "is_rtl": false
  },
  {
    "iso_code": "fr-029",
    "native_name": "français (caraïbes)",
    "english_name": "French (Caribbean)",
    "is_rtl": false
  },
  {
    "iso_code": "fr-BE",
    "native_name": "français (Belgique)",
    "english_name": "French (Belgium)",
    "is_rtl": false
  },
  {
    "iso_code": "fr-BF",
    "native_name": "français (Burkina Faso)",
    "english_name": "French (Burkina Faso)",
    "is_rtl": false
  },
  {
    "iso_code": "fr-BI",
    "native_name": "français (Burundi)",
    "english_name": "French (Burundi)",
    "is_rtl": false
  },
  {
    "iso_code": "fr-BJ",
    "native_name": "français (Bénin)",
    "english_name": "French (Benin)",
    "is_rtl": false
  },
  {
    "iso_code": "fr-BL",
    "native_name": "français (Saint-Barthélemy)",
    "english_name": "French (Saint Barthélemy)",
    "is_rtl": false
  },
  {
    "iso_code": "fr-CA",
    "native_name": "français (Canada)",
    "english_name": "French (Canada)",
    "is_rtl": false
  },
  {
    "iso_code": "fr-CD",
    "native_name": "français (Congo, République démocratique du)",
    "english_name": "French (Congo DRC)",
    "is_rtl": false
  },
  {
    "iso_code": "fr-CF",
    "native_name": "français (République centrafricaine)",
    "english_name": "French (Central African Republic)",
    "is_rtl": false
  },
  {
    "iso_code": "fr-CG",
    "native_name": "français (Congo)",
    "english_name": "French (Congo)",
    "is_rtl": false
  },
  {
    "iso_code": "fr-CH",
    "native_name": "français (Suisse)",
    "english_name": "French (Switzerland)",
    "is_rtl": false
  },
  {
    "iso_code": "fr-CI",
    "native_name": "français (Côte d’Ivoire)",
    "english_name": "French (Côte d’Ivoire)",
    "is_rtl": false
  },
  {
    "iso_code": "fr-CM",
    "native_name": "français (Cameroun)",
    "english_name": "French (Cameroon)",
    "is_rtl": false
  },
  {
    "iso_code": "fr-DJ",
    "native_name": "français (Djibouti)",
    "english_name": "French (Djibouti)",
    "is_rtl": false
  },
  {
    "iso_code": "fr-DZ",
    "native_name": "français (Algérie)",
    "english_name": "French (Algeria)",
    "is_rtl": false
  },
  {
    "iso_code": "fr-FR",
    "native_name": "français (France)",
    "english_name": "French (France)",
    "is_rtl": false
  },
  {
    "iso_code": "fr-GA",
    "native_name": "français (Gabon)",
    "english_name": "French (Gabon)",
    "is_rtl": false
  },
  {
    "iso_code": "fr-GF",
    "native_name": "français (Guyane française)",
    "english_name": "French (French Guiana)",
    "is_rtl": false
  },
  {
    "iso_code": "fr-GN",
    "native_name": "français (Guinée)",
    "english_name": "French (Guinea)",
    "is_rtl": false
  },
  {
    "iso_code": "fr-GP",
    "native_name": "français (Guadeloupe)",
    "english_name": "French (Guadeloupe)",
    "is_rtl": false
  },
  {
    "iso_code": "fr-GQ",
    "native_name": "français (Guinée équatoriale)",
    "english_name": "French (Equatorial Guinea)",
    "is_rtl": false
  },
  {
    "iso_code": "fr-HT",
    "native_name": "français (Haïti)",
    "english_name": "French (Haiti)",
    "is_rtl": false
  },
  {
    "iso_code": "fr-KM",
    "native_name": "français (Comores)",
    "english_name": "French (Comoros)",
    "is_rtl": false
  },
  {
    "iso_code": "fr-LU",
    "native_name": "français (Luxembourg)",
    "english_name": "French (Luxembourg)",
    "is_rtl": false
  },
  {
    "iso_code": "fr-MA",
    "native_name": "français (Maroc)",
    "english_name": "French (Morocco)",
    "is_rtl": false
  },
  {
    "iso_code": "fr-MC",
    "native_name": "français (Monaco)",
    "english_name": "French (Monaco)",
    "is_rtl": false
  },
  {
    "iso_code": "fr-MF",
    "native_name": "français (Saint-Martin)",
    "english_name": "French (Saint Martin)",
    "is_rtl": false
  },
  {
    "iso_code": "fr-MG",
    "native_name": "français (Madagascar)",
    "english_name": "French (Madagascar)",
    "is_rtl": false
  },
  {
    "iso_code": "fr-ML",
    "native_name": "français (Mali)",
    "english_name": "French (Mali)",
    "is_rtl": false
  },
  {
    "iso_code": "fr-MQ",
    "native_name": "français (Martinique)",
    "english_name": "French (Martinique)",
    "is_rtl": false
  },
  {
    "iso_code": "fr-MR",
    "native_name": "français (Mauritanie)",
    "english_name": "French (Mauritania)",
    "is_rtl": false
  },
  {
    "iso_code": "fr-MU",
    "native_name": "français (Maurice)",
    "english_name": "French (Mauritius)",
    "is_rtl": false
  },
  {
    "iso_code": "fr-NC",
    "native_name": "français (Nouvelle-Calédonie)",
    "english_name": "French (New Caledonia)",
    "is_rtl": false
  },
  {
    "iso_code": "fr-NE",
    "native_name": "français (Niger)",
    "english_name": "French (Niger)",
    "is_rtl": false
  },
  {
    "iso_code": "fr-PF",
    "native_name": "français (Polynésie française)",
    "english_name": "French (French Polynesia)",
    "is_rtl": false
  },
  {
    "iso_code": "fr-PM",
    "native_name": "français (Saint-Pierre-et-Miquelon)",
    "english_name": "French (Saint Pierre and Miquelon)",
    "is_rtl": false
  },
  {
    "iso_code": "fr-RE",
    "native_name": "français (La Réunion)",
    "english_name": "French (Réunion)",
    "is_rtl": false
  },
  {
    "iso_code": "fr-RW",
    "native_name": "français (Rwanda)",
    "english_name": "French (Rwanda)",
    "is_rtl": false
  },
  {
    "iso_code": "fr-SC",
    "native_name": "français (Seychelles)",
    "english_name": "French (Seychelles)",
    "is_rtl": false
  },
  {
    "iso_code": "fr-SN",
    "native_name": "français (Sénégal)",
    "english_name": "French (Senegal)",
    "is_rtl": false
  },
  {
    "iso_code": "fr-SY",
    "native_name": "français (Syrie)",
    "english_name": "French (Syria)",
    "is_rtl": false
  },
  {
    "iso_code": "fr-TD",
    "native_name": "français (Tchad)",
    "english_name": "French (Chad)",
    "is_rtl": false
  },
  {
    "iso_code": "fr-TG",
    "native_name": "français (Togo)",
    "english_name": "French (Togo)",
    "is_rtl": false
  },
  {
    "iso_code": "fr-TN",
    "native_name": "français (Tunisie)",
    "english_name": "French (Tunisia)",
    "is_rtl": false
  },
  {
    "iso_code": "fr-VU",
    "native_name": "français (Vanuatu)",
    "english_name": "French (Vanuatu)",
    "is_rtl": false
  },
  {
    "iso_code": "fr-WF",
    "native_name": "français (Wallis-et-Futuna)",
    "english_name": "French (Wallis and Futuna)",
    "is_rtl": false
  },
  {
    "iso_code": "fr-YT",
    "native_name": "français (Mayotte)",
    "english_name": "French (Mayotte)",
    "is_rtl": false
  },
  {
    "iso_code": "fur-IT",
    "native_name": "furlan (Italie)",
    "english_name": "Friulian (Italy)",
    "is_rtl": false
  },
  {
    "iso_code": "fy-NL",
    "native_name": "Frysk (Nederlân)",
    "english_name": "Frisian (Netherlands)",
    "is_rtl": false
  },
  {
    "iso_code": "ga-IE",
    "native_name": "Gaeilge (Éire)",
    "english_name": "Irish (Ireland)",
    "is_rtl": false
  },
  {
    "iso_code": "gd-GB",
    "native_name": "Gàidhlig (An Rìoghachd Aonaichte)",
    "english_name": "Scottish Gaelic (United Kingdom)",
    "is_rtl": false
  },
  {
    "iso_code": "gl-ES",
    "native_name": "galego (galego)",
    "english_name": "Galician (Galician)",
    "is_rtl": false
  },
  {
    "iso_code": "gn-PY",
    "native_name": "Avañe’ẽ (Paraguái)",
    "english_name": "Guarani (Paraguay)",
    "is_rtl": false
  },
  {
    "iso_code": "gsw-CH",
    "native_name": "Elsässisch (Schwiiz)",
    "english_name": "Alsatian (Switzerland)",
    "is_rtl": false
  },
  {
    "iso_code": "gsw-FR",
    "native_name": "Elsässisch (Frànkrisch)",
    "english_name": "Alsatian (France)",
    "is_rtl": false
  },
  {
    "iso_code": "gsw-LI",
    "native_name": "Elsässisch (Liächteschtäi)",
    "english_name": "Alsatian (Liechtenstein)",
    "is_rtl": false
  },
  {
    "iso_code": "gu-IN",
    "native_name": "ગુજરાતી (ભારત)",
    "english_name": "Gujarati (India)",
    "is_rtl": false
  },
  {
    "iso_code": "guz-KE",
    "native_name": "Ekegusii (Kenya)",
    "english_name": "Gusii (Kenya)",
    "is_rtl": false
  },
  {
    "iso_code": "gv-IM",
    "native_name": "Gaelg (Ellan Vannin)",
    "english_name": "Manx (Isle of Man)",
    "is_rtl": false
  },
  {
    "iso_code": "ha-Latn-GH",
    "native_name": "Hausa (Gana)",
    "english_name": "Hausa (Latin, Ghana)",
    "is_rtl": false
  },
  {
    "iso_code": "ha-Latn-NE",
    "native_name": "Hausa (Nijar)",
    "english_name": "Hausa (Latin, Niger)",
    "is_rtl": false
  },
  {
    "iso_code": "ha-Latn-NG",
    "native_name": "Hausa (Najeriya)",
    "english_name": "Hausa (Latin, Nigeria)",
    "is_rtl": false
  },
  {
    "iso_code": "haw-US",
    "native_name": "ʻŌlelo Hawaiʻi (ʻAmelika Hui Pū ʻIa)",
    "english_name": "Hawaiian (United States)",
    "is_rtl": false
  },
  {
    "iso_code": "he-IL",
    "native_name": "עברית (ישראל)",
    "english_name": "Hebrew (Israel)",
    "is_rtl": true
  },
  {
    "iso_code": "hi-IN",
    "native_name": "हिंदी (भारत)",
    "english_name": "Hindi (India)",
    "is_rtl": false
  },
  {
    "iso_code": "hr-BA",
    "native_name": "hrvatski (Bosna i Hercegovina)",
    "english_name": "Croatian (Bosnia and Herzegovina)",
    "is_rtl": false
  },
  {
    "iso_code": "hr-HR",
    "native_name": "hrvatski (Hrvatska)",
    "english_name": "Croatian (Croatia)",
    "is_rtl": false
  },
  {
    "iso_code": "hsb-DE",
    "native_name": "hornjoserbšćina (Němska)",
    "english_name": "Upper Sorbian (Germany)",
    "is_rtl": false
  },
  {
    "iso_code": "hu-HU",
    "native_name": "magyar (Magyarország)",
    "english_name": "Hungarian (Hungary)",
    "is_rtl": false
  },
  {
    "iso_code": "hy-AM",
    "native_name": "Հայերեն (Հայաստան)",
    "english_name": "Armenian (Armenia)",
    "is_rtl": false
  },
  {
    "iso_code": "ia-001",
    "native_name": "interlingua (World)",
    "english_name": "Interlingua (World)",
    "is_rtl": false
  },
  {
    "iso_code": "ia-FR",
    "native_name": "interlingua (Francia)",
    "english_name": "Interlingua (France)",
    "is_rtl": false
  },
  {
    "iso_code": "ibb-NG",
    "native_name": "Ibibio-Efik (Nigeria)",
    "english_name": "Ibibio (Nigeria)",
    "is_rtl": false
  },
  {
    "iso_code": "id-ID",
    "native_name": "Bahasa Indonesia (Indonesia)",
    "english_name": "Indonesian (Indonesia)",
    "is_rtl": false
  },
  {
    "iso_code": "ig-NG",
    "native_name": "Igbo (Nigeria)",
    "english_name": "Igbo (Nigeria)",
    "is_rtl": false
  },
  {
    "iso_code": "ii-CN",
    "native_name": "ꆈꌠꁱꂷ (ꍏꉸꏓꂱꇭꉼꇩ)",
    "english_name": "Yi (China)",
    "is_rtl": false
  },
  {
    "iso_code": "is-IS",
    "native_name": "íslenska (Ísland)",
    "english_name": "Icelandic (Iceland)",
    "is_rtl": false
  },
  {
    "iso_code": "it-CH",
    "native_name": "italiano (Svizzera)",
    "english_name": "Italian (Switzerland)",
    "is_rtl": false
  },
  {
    "iso_code": "it-IT",
    "native_name": "italiano (Italia)",
    "english_name": "Italian (Italy)",
    "is_rtl": false
  },
  {
    "iso_code": "it-SM",
    "native_name": "italiano (San Marino)",
    "english_name": "Italian (San Marino)",
    "is_rtl": false
  },
  {
    "iso_code": "iu-Cans-CA",
    "native_name": "ᐃᓄᒃᑎᑐᑦ (ᑲᓇᑕᒥ)",
    "english_name": "Inuktitut (Syllabics, Canada)",
    "is_rtl": false
  },
  {
    "iso_code": "iu-Latn-CA",
    "native_name": "Inuktitut (Kanatami)",
    "english_name": "Inuktitut (Latin, Canada)",
    "is_rtl": false
  },
  {
    "iso_code": "ja-JP",
    "native_name": "日本語 (日本)",
    "english_name": "Japanese (Japan)",
    "is_rtl": false
  },
  {
    "iso_code": "jgo-CM",
    "native_name": "Ndaꞌa (Kamɛlûn)",
    "english_name": "Ngomba (Cameroon)",
    "is_rtl": false
  },
  {
    "iso_code": "jmc-TZ",
    "native_name": "Kimachame (Tanzania)",
    "english_name": "Machame (Tanzania)",
    "is_rtl": false
  },
  {
    "iso_code": "jv-Java-ID",
    "native_name": "ꦧꦱꦗꦮ (Indonesia)",
    "english_name": "Javanese (Javanese, Indonesia)",
    "is_rtl": false
  },
  {
    "iso_code": "jv-Latn-ID",
    "native_name": "Basa Jawa (Indonesia)",
    "english_name": "Javanese (Indonesia)",
    "is_rtl": false
  },
  {
    "iso_code": "ka-GE",
    "native_name": "ქართული (საქართველო)",
    "english_name": "Georgian (Georgia)",
    "is_rtl": false
  },
  {
    "iso_code": "kab-DZ",
    "native_name": "Taqbaylit (Lezzayer)",
    "english_name": "Kabyle (Algeria)",
    "is_rtl": false
  },
  {
    "iso_code": "kam-KE",
    "native_name": "Kikamba (Kenya)",
    "english_name": "Kamba (Kenya)",
    "is_rtl": false
  },
  {
    "iso_code": "kde-TZ",
    "native_name": "Chimakonde (Tanzania)",
    "english_name": "Makonde (Tanzania)",
    "is_rtl": false
  },
  {
    "iso_code": "kea-CV",
    "native_name": "kabuverdianu (Kabu Verdi)",
    "english_name": "Kabuverdianu (Cabo Verde)",
    "is_rtl": false
  },
  {
    "iso_code": "khq-ML",
    "native_name": "Koyra ciini (Maali)",
    "english_name": "Koyra Chiini (Mali)",
    "is_rtl": false
  },
  {
    "iso_code": "ki-KE",
    "native_name": "Gikuyu (Kenya)",
    "english_name": "Kikuyu (Kenya)",
    "is_rtl": false
  },
  {
    "iso_code": "kk-KZ",
    "native_name": "қазақ тілі (Қазақстан)",
    "english_name": "Kazakh (Kazakhstan)",
    "is_rtl": false
  },
  {
    "iso_code": "kkj-CM",
    "native_name": "kakɔ (Kamɛrun)",
    "english_name": "Kako (Cameroon)",
    "is_rtl": false
  },
  {
    "iso_code": "kl-GL",
    "native_name": "kalaallisut (Kalaallit Nunaat)",
    "english_name": "Greenlandic (Greenland)",
    "is_rtl": false
  },
  {
    "iso_code": "kln-KE",
    "native_name": "Kalenjin (Emetab Kenya)",
    "english_name": "Kalenjin (Kenya)",
    "is_rtl": false
  },
  {
    "iso_code": "km-KH",
    "native_name": "ភាសាខ្មែរ (កម្ពុជា)",
    "english_name": "Khmer (Cambodia)",
    "is_rtl": false
  },
  {
    "iso_code": "kn-IN",
    "native_name": "ಕನ್ನಡ (ಭಾರತ)",
    "english_name": "Kannada (India)",
    "is_rtl": false
  },
  {
    "iso_code": "ko-KR",
    "native_name": "한국어(대한민국)",
    "english_name": "Korean (Korea)",
    "is_rtl": false
  },
  {
    "iso_code": "kok-IN",
    "native_name": "कोंकणी (भारत)",
    "english_name": "Konkani (India)",
    "is_rtl": false
  },
  {
    "iso_code": "kr-NG",
    "native_name": "Kanuri (Nigeria)",
    "english_name": "Kanuri (Nigeria)",
    "is_rtl": false
  },
  {
    "iso_code": "ks-Arab-IN",
    "native_name": "کٲشُر (اَربی)",
    "english_name": "Kashmiri (Perso-Arabic)",
    "is_rtl": false
  },
  {
    "iso_code": "ks-Deva-IN",
    "native_name": "कॉशुर (India)",
    "english_name": "Kashmiri (Devanagari, India)",
    "is_rtl": false
  },
  {
    "iso_code": "ksb-TZ",
    "native_name": "Kishambaa (Tanzania)",
    "english_name": "Shambala (Tanzania)",
    "is_rtl": false
  },
  {
    "iso_code": "ksf-CM",
    "native_name": "rikpa (kamɛrún)",
    "english_name": "Bafia (Cameroon)",
    "is_rtl": false
  },
  {
    "iso_code": "ksh-DE",
    "native_name": "Kölsch (Doütschland)",
    "english_name": "Ripuarian (Germany)",
    "is_rtl": false
  },
  {
    "iso_code": "ku-Arab-IQ",
    "native_name": "کوردیی ناوەڕاست (کوردستان)",
    "english_name": "Central Kurdish (Iraq)",
    "is_rtl": true
  },
  {
    "iso_code": "kw-GB",
    "native_name": "kernewek (Rywvaneth Unys)",
    "english_name": "Cornish (United Kingdom)",
    "is_rtl": false
  },
  {
    "iso_code": "ky-KG",
    "native_name": "Кыргыз (Кыргызстан)",
    "english_name": "Kyrgyz (Kyrgyzstan)",
    "is_rtl": false
  },
  {
    "iso_code": "la-001",
    "native_name": "lingua latīna (World)",
    "english_name": "Latin (World)",
    "is_rtl": false
  },
  {
    "iso_code": "lag-TZ",
    "native_name": "Kɨlaangi (Taansanía)",
    "english_name": "Langi (Tanzania)",
    "is_rtl": false
  },
  {
    "iso_code": "lb-LU",
    "native_name": "Lëtzebuergesch (Lëtzebuerg)",
    "english_name": "Luxembourgish (Luxembourg)",
    "is_rtl": false
  },
  {
    "iso_code": "lg-UG",
    "native_name": "Luganda (Yuganda)",
    "english_name": "Ganda (Uganda)",
    "is_rtl": false
  },
  {
    "iso_code": "lkt-US",
    "native_name": "Lakȟólʼiyapi (Mílahaŋska Tȟamákȟočhe)",
    "english_name": "Lakota (United States)",
    "is_rtl": false
  },
  {
    "iso_code": "ln-AO",
    "native_name": "lingála (Angóla)",
    "english_name": "Lingala (Angola)",
    "is_rtl": false
  },
  {
    "iso_code": "ln-CD",
    "native_name": "lingála (Repibiki demokratiki ya Kongó)",
    "english_name": "Lingala (Congo DRC)",
    "is_rtl": false
  },
  {
    "iso_code": "ln-CF",
    "native_name": "lingála (Repibiki ya Afríka ya Káti)",
    "english_name": "Lingala (Central African Republic)",
    "is_rtl": false
  },
  {
    "iso_code": "ln-CG",
    "native_name": "lingála (Kongo)",
    "english_name": "Lingala (Congo)",
    "is_rtl": false
  },
  {
    "iso_code": "lo-LA",
    "native_name": "ລາວ (ລາວ)",
    "english_name": "Lao (Laos)",
    "is_rtl": false
  },
  {
    "iso_code": "lt-LT",
    "native_name": "lietuvių (Lietuva)",
    "english_name": "Lithuanian (Lithuania)",
    "is_rtl": false
  },
  {
    "iso_code": "lu-CD",
    "native_name": "Tshiluba (Ditunga wa Kongu)",
    "english_name": "Luba-Katanga (Congo DRC)",
    "is_rtl": false
  },
  {
    "iso_code": "luo-KE",
    "native_name": "Dholuo (Kenya)",
    "english_name": "Luo (Kenya)",
    "is_rtl": false
  },
  {
    "iso_code": "luy-KE",
    "native_name": "Luluhia (Kenya)",
    "english_name": "Luyia (Kenya)",
    "is_rtl": false
  },
  {
    "iso_code": "lv-LV",
    "native_name": "latviešu (Latvija)",
    "english_name": "Latvian (Latvia)",
    "is_rtl": false
  },
  {
    "iso_code": "mas-KE",
    "native_name": "Maa (Kenya)",
    "english_name": "Masai (Kenya)",
    "is_rtl": false
  },
  {
    "iso_code": "mas-TZ",
    "native_name": "Maa (Tansania)",
    "english_name": "Masai (Tanzania)",
    "is_rtl": false
  },
  {
    "iso_code": "mer-KE",
    "native_name": "Kĩmĩrũ (Kenya)",
    "english_name": "Meru (Kenya)",
    "is_rtl": false
  },
  {
    "iso_code": "mfe-MU",
    "native_name": "kreol morisien (Moris)",
    "english_name": "Morisyen (Mauritius)",
    "is_rtl": false
  },
  {
    "iso_code": "mg-MG",
    "native_name": "Malagasy (Madagasikara)",
    "english_name": "Malagasy (Madagascar)",
    "is_rtl": false
  },
  {
    "iso_code": "mgh-MZ",
    "native_name": "Makua (Umozambiki)",
    "english_name": "Makhuwa-Meetto (Mozambique)",
    "is_rtl": false
  },
  {
    "iso_code": "mgo-CM",
    "native_name": "metaʼ (Kamalun)",
    "english_name": "Metaʼ (Cameroon)",
    "is_rtl": false
  },
  {
    "iso_code": "mi-NZ",
    "native_name": "Reo Māori (Aotearoa)",
    "english_name": "Maori (New Zealand)",
    "is_rtl": false
  },
  {
    "iso_code": "mk-MK",
    "native_name": "македонски (Македонија)",
    "english_name": "Macedonian (Macedonia, FYRO)",
    "is_rtl": false
  },
  {
    "iso_code": "ml-IN",
    "native_name": "മലയാളം (ഭാരതം)",
    "english_name": "Malayalam (India)",
    "is_rtl": false
  },
  {
    "iso_code": "mn-MN",
    "native_name": "монгол (Монгол)",
    "english_name": "Mongolian (Cyrillic, Mongolia)",
    "is_rtl": false
  },
  {
    "iso_code": "mn-Mong-CN",
    "native_name": "ᠮᠤᠨᠭᠭᠤᠯ ᠬᠡᠯᠡ (ᠪᠦᠭᠦᠳᠡ ᠨᠠᠢᠷᠠᠮᠳᠠᠬᠤ ᠳᠤᠮᠳᠠᠳᠤ ᠠᠷᠠᠳ ᠣᠯᠣᠰ)",
    "english_name": "Mongolian (Traditional Mongolian, China)",
    "is_rtl": false
  },
  {
    "iso_code": "mn-Mong-MN",
    "native_name": "ᠮᠤᠨᠭᠭᠤᠯ ᠬᠡᠯᠡ (ᠮᠤᠨᠭᠭᠤᠯ ᠣᠯᠣᠰ)",
    "english_name": "Mongolian (Traditional Mongolian, Mongolia)",
    "is_rtl": false
  },
  {
    "iso_code": "mni-IN",
    "native_name": "মৈতৈলোন্ (India)",
    "english_name": "Manipuri (India)",
    "is_rtl": false
  },
  {
    "iso_code": "moh-CA",
    "native_name": "Kanien'kéha",
    "english_name": "Mohawk (Mohawk)",
    "is_rtl": false
  },
  {
    "iso_code": "mr-IN",
    "native_name": "मराठी (भारत)",
    "english_name": "Marathi (India)",
    "is_rtl": false
  },
  {
    "iso_code": "ms-BN",
    "native_name": "Bahasa Melayu (Brunei)",
    "english_name": "Malay (Latin, Brunei)",
    "is_rtl": false
  },
  {
    "iso_code": "ms-MY",
    "native_name": "Bahasa Melayu (Malaysia)",
    "english_name": "Malay (Latin, Malaysia)",
    "is_rtl": false
  },
  {
    "iso_code": "ms-SG",
    "native_name": "Bahasa Melayu (Singapura)",
    "english_name": "Malay (Latin, Singapore)",
    "is_rtl": false
  },
  {
    "iso_code": "mt-MT",
    "native_name": "Malti (Malta)",
    "english_name": "Maltese (Malta)",
    "is_rtl": false
  },
  {
    "iso_code": "mua-CM",
    "native_name": "MUNDAŊ (kameruŋ)",
    "english_name": "Mundang (Cameroon)",
    "is_rtl": false
  },
  {
    "iso_code": "my-MM",
    "native_name": "ဗမာ (မြန်မာ)",
    "english_name": "Burmese (Myanmar)",
    "is_rtl": false
  },
  {
    "iso_code": "naq-NA",
    "native_name": "Khoekhoegowab (Namibiab)",
    "english_name": "Nama (Namibia)",
    "is_rtl": false
  },
  {
    "iso_code": "nb-NO",
    "native_name": "norsk bokmål (Norge)",
    "english_name": "Norwegian Bokmål (Norway)",
    "is_rtl": false
  },
  {
    "iso_code": "nb-SJ",
    "native_name": "norsk bokmål (Svalbard og Jan Mayen)",
    "english_name": "Norwegian Bokmål (Svalbard and Jan Mayen)",
    "is_rtl": false
  },
  {
    "iso_code": "nd-ZW",
    "native_name": "isiNdebele (Zimbabwe)",
    "english_name": "North Ndebele (Zimbabwe)",
    "is_rtl": false
  },
  {
    "iso_code": "ne-IN",
    "native_name": "नेपाली (भारत)",
    "english_name": "Nepali (India)",
    "is_rtl": false
  },
  {
    "iso_code": "ne-NP",
    "native_name": "नेपाली (नेपाल)",
    "english_name": "Nepali (Nepal)",
    "is_rtl": false
  },
  {
    "iso_code": "nl-AW",
    "native_name": "Nederlands (Aruba)",
    "english_name": "Dutch (Aruba)",
    "is_rtl": false
  },
  {
    "iso_code": "nl-BE",
    "native_name": "Nederlands (België)",
    "english_name": "Dutch (Belgium)",
    "is_rtl": false
  },
  {
    "iso_code": "nl-BQ",
    "native_name": "Nederlands (Bonaire, Sint Eustatius en Saba)",
    "english_name": "Dutch (Bonaire, Sint Eustatius and Saba)",
    "is_rtl": false
  },
  {
    "iso_code": "nl-CW",
    "native_name": "Nederlands (Curaçao)",
    "english_name": "Dutch (Curaçao)",
    "is_rtl": false
  },
  {
    "iso_code": "nl-NL",
    "native_name": "Nederlands (Nederland)",
    "english_name": "Dutch (Netherlands)",
    "is_rtl": false
  },
  {
    "iso_code": "nl-SR",
    "native_name": "Nederlands (Suriname)",
    "english_name": "Dutch (Suriname)",
    "is_rtl": false
  },
  {
    "iso_code": "nl-SX",
    "native_name": "Nederlands (Sint-Maarten)",
    "english_name": "Dutch (Sint Maarten)",
    "is_rtl": false
  },
  {
    "iso_code": "nmg-CM",
    "native_name": "Kwasio (Kamerun)",
    "english_name": "Kwasio (Cameroon)",
    "is_rtl": false
  },
  {
    "iso_code": "nn-NO",
    "native_name": "nynorsk (Noreg)",
    "english_name": "Norwegian Nynorsk (Norway)",
    "is_rtl": false
  },
  {
    "iso_code": "nnh-CM",
    "native_name": "Shwóŋò ngiembɔɔn (Kàmalûm)",
    "english_name": "Ngiemboon (Cameroon)",
    "is_rtl": false
  },
  {
    "iso_code": "nqo-GN",
    "native_name": "ߒߞߏ (ߖߌ߬ߣߍ߬ ߞߊ߲ߓߍ߲)",
    "english_name": "N'ko (Guinea)",
    "is_rtl": true
  },
  {
    "iso_code": "nr-ZA",
    "native_name": "isiNdebele (South Africa)",
    "english_name": "South Ndebele (South Africa)",
    "is_rtl": false
  },
  {
    "iso_code": "nso-ZA",
    "native_name": "Sesotho sa Leboa (Afrika Borwa)",
    "english_name": "Sesotho sa Leboa (South Africa)",
    "is_rtl": false
  },
  {
    "iso_code": "nus-SS",
    "native_name": "Thok Nath (South Sudan)",
    "english_name": "Nuer (South Sudan)",
    "is_rtl": false
  },
  {
    "iso_code": "nyn-UG",
    "native_name": "Runyankore (Uganda)",
    "english_name": "Nyankole (Uganda)",
    "is_rtl": false
  },
  {
    "iso_code": "oc-FR",
    "native_name": "Occitan (França)",
    "english_name": "Occitan (France)",
    "is_rtl": false
  },
  {
    "iso_code": "om-ET",
    "native_name": "Oromoo (Itoophiyaa)",
    "english_name": "Oromo (Ethiopia)",
    "is_rtl": false
  },
  {
    "iso_code": "om-KE",
    "native_name": "Oromoo (Keeniyaa)",
    "english_name": "Oromo (Kenya)",
    "is_rtl": false
  },
  {
    "iso_code": "or-IN",
    "native_name": "ଓଡ଼ିଆ (ଭାରତ)",
    "english_name": "Odia (India)",
    "is_rtl": false
  },
  {
    "iso_code": "os-GE",
    "native_name": "Ирон æвзаг (Гуырдзыстон)",
    "english_name": "Ossetian (Georgia)",
    "is_rtl": false
  },
  {
    "iso_code": "os-RU",
    "native_name": "Ирон æвзаг (Уӕрӕсе)",
    "english_name": "Ossetian (Russia)",
    "is_rtl": false
  },
  {
    "iso_code": "pa-Arab-PK",
    "native_name": "پنجابی (پاکستان)",
    "english_name": "Punjabi (Pakistan)",
    "is_rtl": true
  },
  {
    "iso_code": "pa-IN",
    "native_name": "ਪੰਜਾਬੀ (ਭਾਰਤ)",
    "english_name": "Punjabi (India)",
    "is_rtl": false
  },
  {
    "iso_code": "pap-029",
    "native_name": "Papiamentu (Caribbean)",
    "english_name": "Papiamento (Caribbean)",
    "is_rtl": false
  },
  {
    "iso_code": "pl-PL",
    "native_name": "polski (Polska)",
    "english_name": "Polish (Poland)",
    "is_rtl": false
  },
  {
    "iso_code": "prs-AF",
    "native_name": "درى (افغانستان)",
    "english_name": "Dari (Afghanistan)",
    "is_rtl": true
  },
  {
    "iso_code": "ps-AF",
    "native_name": "پښتو (افغانستان)",
    "english_name": "Pashto (Afghanistan)",
    "is_rtl": true
  },
  {
    "iso_code": "pt-AO",
    "native_name": "português (Angola)",
    "english_name": "Portuguese (Angola)",
    "is_rtl": false
  },
  {
    "iso_code": "pt-BR",
    "native_name": "português (Brasil)",
    "english_name": "Portuguese (Brazil)",
    "is_rtl": false
  },
  {
    "iso_code": "pt-CV",
    "native_name": "português (Cabo Verde)",
    "english_name": "Portuguese (Cabo Verde)",
    "is_rtl": false
  },
  {
    "iso_code": "pt-GW",
    "native_name": "português (Guiné-Bissau)",
    "english_name": "Portuguese (Guinea-Bissau)",
    "is_rtl": false
  },
  {
    "iso_code": "pt-MO",
    "native_name": "português (RAE de Macau)",
    "english_name": "Portuguese (Macao SAR)",
    "is_rtl": false
  },
  {
    "iso_code": "pt-MZ",
    "native_name": "português (Moçambique)",
    "english_name": "Portuguese (Mozambique)",
    "is_rtl": false
  },
  {
    "iso_code": "pt-PT",
    "native_name": "português (Portugal)",
    "english_name": "Portuguese (Portugal)",
    "is_rtl": false
  },
  {
    "iso_code": "pt-ST",
    "native_name": "português (São Tomé e Príncipe)",
    "english_name": "Portuguese (São Tomé and Príncipe)",
    "is_rtl": false
  },
  {
    "iso_code": "pt-TL",
    "native_name": "português (Timor-Leste)",
    "english_name": "Portuguese (Timor-Leste)",
    "is_rtl": false
  },
  {
    "iso_code": "quc-Latn-GT",
    "native_name": "K'iche' (Guatemala)",
    "english_name": "K'iche' (Guatemala)",
    "is_rtl": false
  },
  {
    "iso_code": "quz-BO",
    "native_name": "runasimi (Qullasuyu)",
    "english_name": "Quechua (Bolivia)",
    "is_rtl": false
  },
  {
    "iso_code": "quz-EC",
    "native_name": "runa shimi (Ecuador Suyu)",
    "english_name": "Quichua (Ecuador)",
    "is_rtl": false
  },
  {
    "iso_code": "quz-PE",
    "native_name": "runasimi (Peru)",
    "english_name": "Quechua (Peru)",
    "is_rtl": false
  },
  {
    "iso_code": "rm-CH",
    "native_name": "rumantsch (Svizra)",
    "english_name": "Romansh (Switzerland)",
    "is_rtl": false
  },
  {
    "iso_code": "rn-BI",
    "native_name": "Ikirundi (Uburundi)",
    "english_name": "Rundi (Burundi)",
    "is_rtl": false
  },
  {
    "iso_code": "ro-MD",
    "native_name": "română (Republica Moldova)",
    "english_name": "Romanian (Moldova)",
    "is_rtl": false
  },
  {
    "iso_code": "ro-RO",
    "native_name": "română (România)",
    "english_name": "Romanian (Romania)",
    "is_rtl": false
  },
  {
    "iso_code": "rof-TZ",
    "native_name": "Kihorombo (Tanzania)",
    "english_name": "Rombo (Tanzania)",
    "is_rtl": false
  },
  {
    "iso_code": "ru-BY",
    "native_name": "русский (Беларусь)",
    "english_name": "Russian (Belarus)",
    "is_rtl": false
  },
  {
    "iso_code": "ru-KG",
    "native_name": "русский (Киргизия)",
    "english_name": "Russian (Kyrgyzstan)",
    "is_rtl": false
  },
  {
    "iso_code": "ru-KZ",
    "native_name": "русский (Казахстан)",
    "english_name": "Russian (Kazakhstan)",
    "is_rtl": false
  },
  {
    "iso_code": "ru-MD",
    "native_name": "русский (Молдова)",
    "english_name": "Russian (Moldova)",
    "is_rtl": false
  },
  {
    "iso_code": "ru-RU",
    "native_name": "русский (Россия)",
    "english_name": "Russian (Russia)",
    "is_rtl": false
  },
  {
    "iso_code": "ru-UA",
    "native_name": "русский (Украина)",
    "english_name": "Russian (Ukraine)",
    "is_rtl": false
  },
  {
    "iso_code": "rw-RW",
    "native_name": "Kinyarwanda (Rwanda)",
    "english_name": "Kinyarwanda (Rwanda)",
    "is_rtl": false
  },
  {
    "iso_code": "rwk-TZ",
    "native_name": "Kiruwa (Tanzania)",
    "english_name": "Rwa (Tanzania)",
    "is_rtl": false
  },
  {
    "iso_code": "sa-IN",
    "native_name": "संस्कृत (भारतम्)",
    "english_name": "Sanskrit (India)",
    "is_rtl": false
  },
  {
    "iso_code": "sah-RU",
    "native_name": "Саха (Россия)",
    "english_name": "Sakha (Russia)",
    "is_rtl": false
  },
  {
    "iso_code": "saq-KE",
    "native_name": "Kisampur (Kenya)",
    "english_name": "Samburu (Kenya)",
    "is_rtl": false
  },
  {
    "iso_code": "sbp-TZ",
    "native_name": "Ishisangu (Tansaniya)",
    "english_name": "Sangu (Tanzania)",
    "is_rtl": false
  },
  {
    "iso_code": "sd-Arab-PK",
    "native_name": "سنڌي (پاکستان)",
    "english_name": "Sindhi (Pakistan)",
    "is_rtl": true
  },
  {
    "iso_code": "sd-Deva-IN",
    "native_name": "सिन्धी (India)",
    "english_name": "Sindhi (Devanagari, India)",
    "is_rtl": false
  },
  {
    "iso_code": "se-FI",
    "native_name": "davvisámegiella (Suopma)",
    "english_name": "Sami, Northern (Finland)",
    "is_rtl": false
  },
  {
    "iso_code": "se-NO",
    "native_name": "davvisámegiella (Norga)",
    "english_name": "Sami, Northern (Norway)",
    "is_rtl": false
  },
  {
    "iso_code": "se-SE",
    "native_name": "davvisámegiella (Ruoŧŧa)",
    "english_name": "Sami, Northern (Sweden)",
    "is_rtl": false
  },
  {
    "iso_code": "seh-MZ",
    "native_name": "sena (Moçambique)",
    "english_name": "Sena (Mozambique)",
    "is_rtl": false
  },
  {
    "iso_code": "ses-ML",
    "native_name": "Koyraboro senni (Maali)",
    "english_name": "Koyraboro Senni (Mali)",
    "is_rtl": false
  },
  {
    "iso_code": "sg-CF",
    "native_name": "Sängö (Ködörösêse tî Bêafrîka)",
    "english_name": "Sango (Central African Republic)",
    "is_rtl": false
  },
  {
    "iso_code": "shi-Latn-MA",
    "native_name": "tamazight (lmɣrib)",
    "english_name": "Tachelhit (Latin, Morocco)",
    "is_rtl": false
  },
  {
    "iso_code": "shi-Tfng-MA",
    "native_name": "ⵜⴰⵎⴰⵣⵉⵖⵜ (ⵍⵎⵖⵔⵉⴱ)",
    "english_name": "Tachelhit (Tifinagh, Morocco)",
    "is_rtl": false
  },
  {
    "iso_code": "si-LK",
    "native_name": "සිංහල (ශ්‍රී ලංකාව)",
    "english_name": "Sinhala (Sri Lanka)",
    "is_rtl": false
  },
  {
    "iso_code": "sk-SK",
    "native_name": "slovenčina (Slovensko)",
    "english_name": "Slovak (Slovakia)",
    "is_rtl": false
  },
  {
    "iso_code": "sl-SI",
    "native_name": "slovenščina (Slovenija)",
    "english_name": "Slovenian (Slovenia)",
    "is_rtl": false
  },
  {
    "iso_code": "sma-NO",
    "native_name": "åarjelsaemiengïele (Nöörje)",
    "english_name": "Sami, Southern (Norway)",
    "is_rtl": false
  },
  {
    "iso_code": "sma-SE",
    "native_name": "åarjelsaemiengïele (Sveerje)",
    "english_name": "Sami, Southern (Sweden)",
    "is_rtl": false
  },
  {
    "iso_code": "smj-NO",
    "native_name": "julevusámegiella (Vuodna)",
    "english_name": "Sami, Lule (Norway)",
    "is_rtl": false
  },
  {
    "iso_code": "smj-SE",
    "native_name": "julevusámegiella (Svierik)",
    "english_name": "Sami, Lule (Sweden)",
    "is_rtl": false
  },
  {
    "iso_code": "smn-FI",
    "native_name": "anarâškielâ (Suomâ)",
    "english_name": "Sami, Inari (Finland)",
    "is_rtl": false
  },
  {
    "iso_code": "sms-FI",
    "native_name": "sää´mǩiõll (Lää´ddjânnam)",
    "english_name": "Sami, Skolt (Finland)",
    "is_rtl": false
  },
  {
    "iso_code": "sn-Latn-ZW",
    "native_name": "chiShona (Zimbabwe)",
    "english_name": "Shona (Latin, Zimbabwe)",
    "is_rtl": false
  },
  {
    "iso_code": "so-DJ",
    "native_name": "Soomaali (Jabuuti)",
    "english_name": "Somali (Djibouti)",
    "is_rtl": false
  },
  {
    "iso_code": "so-ET",
    "native_name": "Soomaali (Itoobiya)",
    "english_name": "Somali (Ethiopia)",
    "is_rtl": false
  },
  {
    "iso_code": "so-KE",
    "native_name": "Soomaali (Kiiniya)",
    "english_name": "Somali (Kenya)",
    "is_rtl": false
  },
  {
    "iso_code": "so-SO",
    "native_name": "Soomaali (Soomaaliya)",
    "english_name": "Somali (Somalia)",
    "is_rtl": false
  },
  {
    "iso_code": "sq-AL",
    "native_name": "shqip (Shqipëri)",
    "english_name": "Albanian (Albania)",
    "is_rtl": false
  },
  {
    "iso_code": "sq-MK",
    "native_name": "shqip (Maqedoni)",
    "english_name": "Albanian (Macedonia, FYRO)",
    "is_rtl": false
  },
  {
    "iso_code": "sq-XK",
    "native_name": "shqip (Kosovë)",
    "english_name": "Albanian (Kosovo)",
    "is_rtl": false
  },
  {
    "iso_code": "sr-Cyrl-BA",
    "native_name": "српски (Босна и Херцеговина)",
    "english_name": "Serbian (Cyrillic, Bosnia and Herzegovina)",
    "is_rtl": false
  },
  {
    "iso_code": "sr-Cyrl-ME",
    "native_name": "српски (Црна Гора)",
    "english_name": "Serbian (Cyrillic, Montenegro)",
    "is_rtl": false
  },
  {
    "iso_code": "sr-Cyrl-RS",
    "native_name": "српски (Србија)",
    "english_name": "Serbian (Cyrillic, Serbia)",
    "is_rtl": false
  },
  {
    "iso_code": "sr-Cyrl-XK",
    "native_name": "српски (Косово)",
    "english_name": "Serbian (Cyrillic, Kosovo)",
    "is_rtl": false
  },
  {
    "iso_code": "sr-Latn-BA",
    "native_name": "srpski (Bosna i Hercegovina)",
    "english_name": "Serbian (Latin, Bosnia and Herzegovina)",
    "is_rtl": false
  },
  {
    "iso_code": "sr-Latn-ME",
    "native_name": "srpski (Crna Gora)",
    "english_name": "Serbian (Latin, Montenegro)",
    "is_rtl": false
  },
  {
    "iso_code": "sr-Latn-RS",
    "native_name": "srpski (Srbija)",
    "english_name": "Serbian (Latin, Serbia)",
    "is_rtl": false
  },
  {
    "iso_code": "sr-Latn-XK",
    "native_name": "srpski (Kosovo)",
    "english_name": "Serbian (Latin, Kosovo)",
    "is_rtl": false
  },
  {
    "iso_code": "ss-SZ",
    "native_name": "siSwati (Swaziland)",
    "english_name": "siSwati (Swaziland)",
    "is_rtl": false
  },
  {
    "iso_code": "ss-ZA",
    "native_name": "siSwati (South Africa)",
    "english_name": "siSwati (South Africa)",
    "is_rtl": false
  },
  {
    "iso_code": "ssy-ER",
    "native_name": "Saho (Eretria)",
    "english_name": "Saho (Eritrea)",
    "is_rtl": false
  },
  {
    "iso_code": "st-LS",
    "native_name": "Sesotho (Lesotho)",
    "english_name": "Sesotho (Lesotho)",
    "is_rtl": false
  },
  {
    "iso_code": "st-ZA",
    "native_name": "Sesotho (South Africa)",
    "english_name": "Sesotho (South Africa)",
    "is_rtl": false
  },
  {
    "iso_code": "sv-AX",
    "native_name": "svenska (Åland)",
    "english_name": "Swedish (Åland Islands)",
    "is_rtl": false
  },
  {
    "iso_code": "sv-FI",
    "native_name": "svenska (Finland)",
    "english_name": "Swedish (Finland)",
    "is_rtl": false
  },
  {
    "iso_code": "sv-SE",
    "native_name": "svenska (Sverige)",
    "english_name": "Swedish (Sweden)",
    "is_rtl": false
  },
  {
    "iso_code": "sw-CD",
    "native_name": "Kiswahili (Jamhuri ya Kidemokrasia ya Kongo)",
    "english_name": "Kiswahili (Congo DRC)",
    "is_rtl": false
  },
  {
    "iso_code": "sw-KE",
    "native_name": "Kiswahili (Kenya)",
    "english_name": "Kiswahili (Kenya)",
    "is_rtl": false
  },
  {
    "iso_code": "sw-TZ",
    "native_name": "Kiswahili (Tanzania)",
    "english_name": "Kiswahili (Tanzania)",
    "is_rtl": false
  },
  {
    "iso_code": "sw-UG",
    "native_name": "Kiswahili (Uganda)",
    "english_name": "Kiswahili (Uganda)",
    "is_rtl": false
  },
  {
    "iso_code": "swc-CD",
    "native_name": "Kiswahili ya Kongo (Jamhuri ya Kidemokrasia ya Kongo)",
    "english_name": "Congo Swahili (Congo DRC)",
    "is_rtl": false
  },
  {
    "iso_code": "syr-SY",
    "native_name": "ܣܘܪܝܝܐ (ܣܘܪܝܐ)",
    "english_name": "Syriac (Syria)",
    "is_rtl": true
  },
  {
    "iso_code": "ta-IN",
    "native_name": "தமிழ் (இந்தியா)",
    "english_name": "Tamil (India)",
    "is_rtl": false
  },
  {
    "iso_code": "ta-LK",
    "native_name": "தமிழ் (இலங்கை)",
    "english_name": "Tamil (Sri Lanka)",
    "is_rtl": false
  },
  {
    "iso_code": "ta-MY",
    "native_name": "தமிழ் (மலேஷியா)",
    "english_name": "Tamil (Malaysia)",
    "is_rtl": false
  },
  {
    "iso_code": "ta-SG",
    "native_name": "தமிழ் (சிங்கப்பூர்)",
    "english_name": "Tamil (Singapore)",
    "is_rtl": false
  },
  {
    "iso_code": "te-IN",
    "native_name": "తెలుగు (భారత దేశం)",
    "english_name": "Telugu (India)",
    "is_rtl": false
  },
  {
    "iso_code": "teo-KE",
    "native_name": "Kiteso (Kenia)",
    "english_name": "Teso (Kenya)",
    "is_rtl": false
  },
  {
    "iso_code": "teo-UG",
    "native_name": "Kiteso (Uganda)",
    "english_name": "Teso (Uganda)",
    "is_rtl": false
  },
  {
    "iso_code": "tg-Cyrl-TJ",
    "native_name": "Тоҷикӣ (Тоҷикистон)",
    "english_name": "Tajik (Cyrillic, Tajikistan)",
    "is_rtl": false
  },
  {
    "iso_code": "th-TH",
    "native_name": "ไทย (ไทย)",
    "english_name": "Thai (Thailand)",
    "is_rtl": false
  },
  {
    "iso_code": "ti-ER",
    "native_name": "ትግርኛ (ኤርትራ)",
    "english_name": "Tigrinya (Eritrea)",
    "is_rtl": false
  },
  {
    "iso_code": "ti-ET",
    "native_name": "ትግርኛ (ኢትዮጵያ)",
    "english_name": "Tigrinya (Ethiopia)",
    "is_rtl": false
  },
  {
    "iso_code": "tig-ER",
    "native_name": "ትግረ (ኤርትራ)",
    "english_name": "Tigre (Eritrea)",
    "is_rtl": false
  },
  {
    "iso_code": "tk-TM",
    "native_name": "Türkmen dili (Türkmenistan)",
    "english_name": "Turkmen (Turkmenistan)",
    "is_rtl": false
  },
  {
    "iso_code": "tn-BW",
    "native_name": "Setswana (Botswana)",
    "english_name": "Setswana (Botswana)",
    "is_rtl": false
  },
  {
    "iso_code": "tn-ZA",
    "native_name": "Setswana (Aforika Borwa)",
    "english_name": "Setswana (South Africa)",
    "is_rtl": false
  },
  {
    "iso_code": "to-TO",
    "native_name": "lea fakatonga (Tonga)",
    "english_name": "Tongan (Tonga)",
    "is_rtl": false
  },
  {
    "iso_code": "tr-CY",
    "native_name": "Türkçe (Güney Kıbrıs Rum Kesimi)",
    "english_name": "Turkish (Cyprus)",
    "is_rtl": false
  },
  {
    "iso_code": "tr-TR",
    "native_name": "Türkçe (Türkiye)",
    "english_name": "Turkish (Turkey)",
    "is_rtl": false
  },
  {
    "iso_code": "ts-ZA",
    "native_name": "Xitsonga (South Africa)",
    "english_name": "Xitsonga (South Africa)",
    "is_rtl": false
  },
  {
    "iso_code": "tt-RU",
    "native_name": "Татар (Россия)",
    "english_name": "Tatar (Russia)",
    "is_rtl": false
  },
  {
    "iso_code": "twq-NE",
    "native_name": "Tasawaq senni (Nižer)",
    "english_name": "Tasawaq (Niger)",
    "is_rtl": false
  },
  {
    "iso_code": "tzm-Arab-MA",
    "native_name": "أطلس المركزية التامازيتية (Morocco)",
    "english_name": "Central Atlas Tamazight (Arabic, Morocco)",
    "is_rtl": true
  },
  {
    "iso_code": "tzm-Latn-DZ",
    "native_name": "Tamazight (Djazaïr)",
    "english_name": "Central Atlas Tamazight (Latin, Algeria)",
    "is_rtl": false
  },
  {
    "iso_code": "tzm-Latn-MA",
    "native_name": "Tamaziɣt (Meṛṛuk)",
    "english_name": "Central Atlas Tamazight (Latin, Morocco)",
    "is_rtl": false
  },
  {
    "iso_code": "tzm-Tfng-MA",
    "native_name": "ⵜⴰⵎⴰⵣⵉⵖⵜ (ⵍⵎⵖⵔⵉⴱ)",
    "english_name": "Central Atlas Tamazight (Tifinagh, Morocco)",
    "is_rtl": false
  },
  {
    "iso_code": "ug-CN",
    "native_name": "ئۇيغۇرچە (جۇڭخۇا خەلق جۇمھۇرىيىتى)",
    "english_name": "Uyghur (China)",
    "is_rtl": true
  },
  {
    "iso_code": "uk-UA",
    "native_name": "українська (Україна)",
    "english_name": "Ukrainian (Ukraine)",
    "is_rtl": false
  },
  {
    "iso_code": "ur-IN",
    "native_name": "اردو (بھارت)",
    "english_name": "Urdu (India)",
    "is_rtl": true
  },
  {
    "iso_code": "ur-PK",
    "native_name": "اُردو (پاکستان)",
    "english_name": "Urdu (Pakistan)",
    "is_rtl": true
  },
  {
    "iso_code": "uz-Arab-AF",
    "native_name": "اوزبیک (افغانستان)",
    "english_name": "Uzbek (Perso-Arabic, Afghanistan)",
    "is_rtl": false
  },
  {
    "iso_code": "uz-Cyrl-UZ",
    "native_name": "Ўзбек (Ўзбекистон)",
    "english_name": "Uzbek (Cyrillic, Uzbekistan)",
    "is_rtl": false
  },
  {
    "iso_code": "uz-Latn-UZ",
    "native_name": "oʻzbekcha (Oʻzbekiston)",
    "english_name": "Uzbek (Latin, Uzbekistan)",
    "is_rtl": false
  },
  {
    "iso_code": "vai-Latn-LR",
    "native_name": "Vai (Laibhiya)",
    "english_name": "Vai (Latin, Liberia)",
    "is_rtl": false
  },
  {
    "iso_code": "vai-Vaii-LR",
    "native_name": "ꕙꔤ (ꕞꔤꔫꕩ)",
    "english_name": "Vai (Vai, Liberia)",
    "is_rtl": false
  },
  {
    "iso_code": "ve-ZA",
    "native_name": "Tshivenḓa (South Africa)",
    "english_name": "Venda (South Africa)",
    "is_rtl": false
  },
  {
    "iso_code": "vi-VN",
    "native_name": "Tiếng Việt (Việt Nam)",
    "english_name": "Vietnamese (Vietnam)",
    "is_rtl": false
  },
  {
    "iso_code": "vo-001",
    "native_name": "Volapük (World)",
    "english_name": "Volapük (World)",
    "is_rtl": false
  },
  {
    "iso_code": "vun-TZ",
    "native_name": "Kyivunjo (Tanzania)",
    "english_name": "Vunjo (Tanzania)",
    "is_rtl": false
  },
  {
    "iso_code": "wae-CH",
    "native_name": "Walser (Schwiz)",
    "english_name": "Walser (Switzerland)",
    "is_rtl": false
  },
  {
    "iso_code": "wal-ET",
    "native_name": "ወላይታቱ (ኢትዮጵያ)",
    "english_name": "Wolaytta (Ethiopia)",
    "is_rtl": false
  },
  {
    "iso_code": "wo-SN",
    "native_name": "Wolof (Senegaal)",
    "english_name": "Wolof (Senegal)",
    "is_rtl": false
  },
  {
    "iso_code": "xh-ZA",
    "native_name": "isiXhosa (South Africa)",
    "english_name": "isiXhosa (South Africa)",
    "is_rtl": false
  },
  {
    "iso_code": "xog-UG",
    "native_name": "Olusoga (Yuganda)",
    "english_name": "Soga (Uganda)",
    "is_rtl": false
  },
  {
    "iso_code": "yav-CM",
    "native_name": "nuasue (Kemelún)",
    "english_name": "Yangben (Cameroon)",
    "is_rtl": false
  },
  {
    "iso_code": "yi-001",
    "native_name": "ייִדיש (וועלט)",
    "english_name": "Yiddish (World)",
    "is_rtl": true
  },
  {
    "iso_code": "yo-BJ",
    "native_name": "Èdè Yorùbá (Orílɛ́ède Bɛ̀nɛ̀)",
    "english_name": "Yoruba (Benin)",
    "is_rtl": false
  },
  {
    "iso_code": "yo-NG",
    "native_name": "Èdè Yorùbá (Orílẹ́ède Nàìjíríà)",
    "english_name": "Yoruba (Nigeria)",
    "is_rtl": false
  },
  {
    "iso_code": "zgh-Tfng-MA",
    "native_name": "ⵜⴰⵎⴰⵣⵉⵖⵜ (ⵍⵎⵖⵔⵉⴱ)",
    "english_name": "Standard Moroccan Tamazight (Tifinagh, Morocco)",
    "is_rtl": false
  },
  {
    "iso_code": "zh-CN",
    "native_name": "中文(中华人民共和国)",
    "english_name": "Chinese (Simplified, China)",
    "is_rtl": false
  },
  {
    "iso_code": "zh-Hans-HK",
    "native_name": "中文 (香港特别行政区)",
    "english_name": "Chinese (Simplified Han, Hong Kong SAR)",
    "is_rtl": false
  },
  {
    "iso_code": "zh-Hans-MO",
    "native_name": "中文 (澳门特别行政区)",
    "english_name": "Chinese (Simplified Han, Macao SAR)",
    "is_rtl": false
  },
  {
    "iso_code": "zh-HK",
    "native_name": "中文(香港特別行政區)",
    "english_name": "Chinese (Traditional, Hong Kong SAR)",
    "is_rtl": false
  },
  {
    "iso_code": "zh-MO",
    "native_name": "中文(澳門特別行政區)",
    "english_name": "Chinese (Traditional, Macao SAR)",
    "is_rtl": false
  },
  {
    "iso_code": "zh-SG",
    "native_name": "中文(新加坡)",
    "english_name": "Chinese (Simplified, Singapore)",
    "is_rtl": false
  },
  {
    "iso_code": "zh-TW",
    "native_name": "中文(台灣)",
    "english_name": "Chinese (Traditional, Taiwan)",
    "is_rtl": false
  },
  {
    "iso_code": "zu-ZA",
    "native_name": "isiZulu (i-South Africa)",
    "english_name": "isiZulu (South Africa)",
    "is_rtl": false
  }
]
